start=new Date('2022-12-25T00:00:00.000Z').valueOf();
sats=[{"CLASSIFICATION_TYPE":"U","ARG_OF_PERICENTER":"34.6035","REF_FRAME":"TEME","TLE_LINE2":"2 52290  53.2166 315.0293 0002640  34.6035 325.5129 15.08843432 37756","OBJECT_NAME":"STARLINK-3772","ECCENTRICITY":"0.00026400","OBJECT_TYPE":"PAYLOAD","GP_ID":"221379937","EPHEMERIS_TYPE":"0","OBJECT_ID":"2022-041AF","ELEMENT_SET_NO":"999","SITE":"AFETR","TLE_LINE1":"1 52290U 22041AF  22358.89476832 -.00000305  00000-0 -10165-5 0  9992","MEAN_MOTION":"15.08843432","NORAD_CAT_ID":"52290","LAUNCH_DATE":"2022-04-21","PERIOD":"95.437","MEAN_ELEMENT_THEORY":"SGP4","SEMIMAJOR_AXIS":"6917.870","MEAN_ANOMALY":"325.5129","CENTER_NAME":"EARTH","RCS_SIZE":"LARGE","APOAPSIS":"541.561","TIME_SYSTEM":"UTC","MEAN_MOTION_DDOT":"0.0000000000000","RA_OF_ASC_NODE":"315.0293","DECAY_DATE":null,"BSTAR":"-0.00000101650000","PERIAPSIS":"537.909","MEAN_MOTION_DOT":"-0.00000305","FILE":"3721442","COUNTRY_CODE":"US","REV_AT_EPOCH":"3775","EPOCH":"2022-12-24T21:28:27.982848","INCLINATION":"53.2166"},{"REV_AT_EPOCH":"3775","EPOCH":"2022-12-24T21:53:34.740960","INCLINATION":"53.2171","DECAY_DATE":null,"BSTAR":"0.00021998000000","PERIAPSIS":"537.888","FILE":"3721442","COUNTRY_CODE":"US","MEAN_MOTION_DOT":"0.00003215","APOAPSIS":"541.559","RCS_SIZE":"LARGE","SEMIMAJOR_AXIS":"6917.858","CENTER_NAME":"EARTH","MEAN_ANOMALY":"338.0768","RA_OF_ASC_NODE":"314.9365","TIME_SYSTEM":"UTC","MEAN_MOTION_DDOT":"0.0000000000000","NORAD_CAT_ID":"52291","LAUNCH_DATE":"2022-04-21","MEAN_ELEMENT_THEORY":"SGP4","PERIOD":"95.437","TLE_LINE1":"1 52291U 22041AG  22358.91220765  .00003215  00000-0  21998-3 0  9993","MEAN_MOTION":"15.08847170","GP_ID":"221380186","SITE":"AFETR","ELEMENT_SET_NO":"999","EPHEMERIS_TYPE":"0","OBJECT_ID":"2022-041AG","REF_FRAME":"TEME","ARG_OF_PERICENTER":"22.0338","TLE_LINE2":"2 52291  53.2171 314.9365 0002653  22.0338 338.0768 15.08847170 37753","OBJECT_NAME":"STARLINK-3773","CLASSIFICATION_TYPE":"U","OBJECT_TYPE":"PAYLOAD","ECCENTRICITY":"0.00026530"},{"TIME_SYSTEM":"UTC","MEAN_MOTION_DDOT":"0.0000000000000","RA_OF_ASC_NODE":"316.2373","CENTER_NAME":"EARTH","SEMIMAJOR_AXIS":"6917.849","MEAN_ANOMALY":"315.8168","RCS_SIZE":"LARGE","APOAPSIS":"541.210","MEAN_MOTION_DOT":"0.00001666","FILE":"3721442","COUNTRY_CODE":"US","DECAY_DATE":null,"BSTAR":"0.00012271000000","PERIAPSIS":"538.218","EPOCH":"2022-12-24T15:00:14.104800","INCLINATION":"53.2194","REV_AT_EPOCH":"3771","ECCENTRICITY":"0.00021620","OBJECT_TYPE":"PAYLOAD","CLASSIFICATION_TYPE":"U","ARG_OF_PERICENTER":"44.2997","REF_FRAME":"TEME","TLE_LINE2":"2 52292  53.2194 316.2373 0002162  44.2997 315.8168 15.08850266 37718","OBJECT_NAME":"STARLINK-3753","OBJECT_ID":"2022-041AH","EPHEMERIS_TYPE":"0","SITE":"AFETR","ELEMENT_SET_NO":"999","GP_ID":"221380938","MEAN_MOTION":"15.08850266","TLE_LINE1":"1 52292U 22041AH  22358.62516325  .00001666  00000-0  12271-3 0  9994","PERIOD":"95.437","MEAN_ELEMENT_THEORY":"SGP4","LAUNCH_DATE":"2022-04-21","NORAD_CAT_ID":"52292"},{"DECAY_DATE":null,"BSTAR":"0.00004615200000","PERIAPSIS":"537.806","FILE":"3721442","COUNTRY_CODE":"US","MEAN_MOTION_DOT":"0.00000446","REV_AT_EPOCH":"3775","EPOCH":"2022-12-24T21:37:40.788192","INCLINATION":"53.2161","APOAPSIS":"541.644","RCS_SIZE":"LARGE","CENTER_NAME":"EARTH","SEMIMAJOR_AXIS":"6917.860","MEAN_ANOMALY":"327.9851","RA_OF_ASC_NODE":"315.0014","TIME_SYSTEM":"UTC","MEAN_MOTION_DDOT":"0.0000000000000","TLE_LINE1":"1 52293U 22041AJ  22358.90116653  .00000446  00000-0  46152-4 0  9997","MEAN_MOTION":"15.08846542","LAUNCH_DATE":"2022-04-21","NORAD_CAT_ID":"52293","MEAN_ELEMENT_THEORY":"SGP4","PERIOD":"95.437","ARG_OF_PERICENTER":"32.1310","REF_FRAME":"TEME","TLE_LINE2":"2 52293  53.2161 315.0014 0002774  32.1310 327.9851 15.08846542 37755","OBJECT_NAME":"STARLINK-3771","CLASSIFICATION_TYPE":"U","OBJECT_TYPE":"PAYLOAD","ECCENTRICITY":"0.00027740","GP_ID":"221381688","ELEMENT_SET_NO":"999","SITE":"AFETR","OBJECT_ID":"2022-041AJ","EPHEMERIS_TYPE":"0"},{"INCLINATION":"53.2180","EPOCH":"2022-12-24T21:16:29.165088","REV_AT_EPOCH":"3775","COUNTRY_CODE":"US","FILE":"3721442","MEAN_MOTION_DOT":"0.00000470","PERIAPSIS":"538.278","BSTAR":"0.00004765300000","DECAY_DATE":null,"RA_OF_ASC_NODE":"315.0701","MEAN_MOTION_DDOT":"0.0000000000000","TIME_SYSTEM":"UTC","RCS_SIZE":"MEDIUM","APOAPSIS":"541.214","CENTER_NAME":"EARTH","SEMIMAJOR_AXIS":"6917.881","MEAN_ANOMALY":"324.3017","MEAN_ELEMENT_THEORY":"SGP4","PERIOD":"95.438","NORAD_CAT_ID":"52294","LAUNCH_DATE":"2022-04-21","MEAN_MOTION":"15.08839899","TLE_LINE1":"1 52294U 22041AK  22358.88644867  .00000470  00000-0  47653-4 0  9992","SITE":"AFETR","ELEMENT_SET_NO":"999","OBJECT_ID":"2022-041AK","EPHEMERIS_TYPE":"0","GP_ID":"221380436","OBJECT_TYPE":"PAYLOAD","ECCENTRICITY":"0.00021220","OBJECT_NAME":"STARLINK-3777","TLE_LINE2":"2 52294  53.2180 315.0701 0002122  35.8117 324.3017 15.08839899 37754","REF_FRAME":"TEME","ARG_OF_PERICENTER":"35.8117","CLASSIFICATION_TYPE":"U"},{"ELEMENT_SET_NO":"999","SITE":"AFETR","OBJECT_ID":"2022-041AL","EPHEMERIS_TYPE":"0","GP_ID":"221380686","OBJECT_TYPE":"PAYLOAD","ECCENTRICITY":"0.00023300","TLE_LINE2":"2 52295  53.2197 315.0062 0002330  40.1492 319.9672 15.08846071 37756","OBJECT_NAME":"STARLINK-3765","REF_FRAME":"TEME","ARG_OF_PERICENTER":"40.1492","CLASSIFICATION_TYPE":"U","MEAN_ELEMENT_THEORY":"SGP4","PERIOD":"95.437","NORAD_CAT_ID":"52295","LAUNCH_DATE":"2022-04-21","MEAN_MOTION":"15.08846071","TLE_LINE1":"1 52295U 22041AL  22358.89748449  .00002197  00000-0  15610-3 0  9990","RA_OF_ASC_NODE":"315.0062","MEAN_MOTION_DDOT":"0.0000000000000","TIME_SYSTEM":"UTC","RCS_SIZE":"LARGE","APOAPSIS":"541.339","SEMIMAJOR_AXIS":"6917.862","MEAN_ANOMALY":"319.9672","CENTER_NAME":"EARTH","INCLINATION":"53.2197","EPOCH":"2022-12-24T21:32:22.659936","REV_AT_EPOCH":"3775","COUNTRY_CODE":"US","FILE":"3721442","MEAN_MOTION_DOT":"0.00002197","PERIAPSIS":"538.115","DECAY_DATE":null,"BSTAR":"0.00015610000000"},{"BSTAR":"0.00016614000000","DECAY_DATE":null,"PERIAPSIS":"538.240","FILE":"3721442","COUNTRY_CODE":"US","MEAN_MOTION_DOT":"0.00002357","REV_AT_EPOCH":"3775","EPOCH":"2022-12-24T21:00:36.245664","INCLINATION":"53.2179","APOAPSIS":"541.202","RCS_SIZE":"LARGE","CENTER_NAME":"EARTH","SEMIMAJOR_AXIS":"6917.856","MEAN_ANOMALY":"318.2554","RA_OF_ASC_NODE":"315.1227","TIME_SYSTEM":"UTC","MEAN_MOTION_DDOT":"0.0000000000000","TLE_LINE1":"1 52296U 22041AM  22358.87541951  .00002357  00000-0  16614-3 0  9991","MEAN_MOTION":"15.08848019","NORAD_CAT_ID":"52296","LAUNCH_DATE":"2022-04-21","MEAN_ELEMENT_THEORY":"SGP4","PERIOD":"95.437","REF_FRAME":"TEME","ARG_OF_PERICENTER":"41.8601","TLE_LINE2":"2 52296  53.2179 315.1227 0002141  41.8601 318.2554 15.08848019 37756","OBJECT_NAME":"STARLINK-3766","CLASSIFICATION_TYPE":"U","OBJECT_TYPE":"PAYLOAD","ECCENTRICITY":"0.00021410","GP_ID":"221381438","ELEMENT_SET_NO":"999","SITE":"AFETR","OBJECT_ID":"2022-041AM","EPHEMERIS_TYPE":"0"},{"TLE_LINE2":"2 52297  53.2187 315.0265 0002923  24.1169 335.9959 15.08844932 37753","OBJECT_NAME":"STARLINK-3758","REF_FRAME":"TEME","ARG_OF_PERICENTER":"24.1169","CLASSIFICATION_TYPE":"U","OBJECT_TYPE":"PAYLOAD","ECCENTRICITY":"0.00029230","GP_ID":"221381189","SITE":"AFETR","ELEMENT_SET_NO":"999","OBJECT_ID":"2022-041AN","EPHEMERIS_TYPE":"0","TLE_LINE1":"1 52297U 22041AN  22358.89380962  .00001217  00000-0  94551-4 0  9998","MEAN_MOTION":"15.08844932","LAUNCH_DATE":"2022-04-21","NORAD_CAT_ID":"52297","MEAN_ELEMENT_THEORY":"SGP4","PERIOD":"95.437","RCS_SIZE":"LARGE","APOAPSIS":"541.752","CENTER_NAME":"EARTH","SEMIMAJOR_AXIS":"6917.865","MEAN_ANOMALY":"335.9959","RA_OF_ASC_NODE":"315.0265","MEAN_MOTION_DDOT":"0.0000000000000","TIME_SYSTEM":"UTC","PERIAPSIS":"537.708","BSTAR":"0.00009455100000","DECAY_DATE":null,"COUNTRY_CODE":"US","FILE":"3721442","MEAN_MOTION_DOT":"0.00001217","REV_AT_EPOCH":"3775","INCLINATION":"53.2187","EPOCH":"2022-12-24T21:27:05.151168"},{"TLE_LINE1":"1 52298U 22041AP  22358.60677030 -.00001351  00000-0 -66789-4 0  9996","MEAN_MOTION":"15.08848139","NORAD_CAT_ID":"52298","LAUNCH_DATE":"2022-04-21","PERIOD":"95.437","MEAN_ELEMENT_THEORY":"SGP4","CLASSIFICATION_TYPE":"U","REF_FRAME":"TEME","ARG_OF_PERICENTER":"59.3138","TLE_LINE2":"2 52298  53.2146 316.3261 0002168  59.3138 300.8067 15.08848139 37716","OBJECT_NAME":"STARLINK-3760","ECCENTRICITY":"0.00021680","OBJECT_TYPE":"PAYLOAD","GP_ID":"221379938","EPHEMERIS_TYPE":"0","OBJECT_ID":"2022-041AP","SITE":"AFETR","ELEMENT_SET_NO":"999","DECAY_DATE":null,"BSTAR":"-0.00006678900000","PERIAPSIS":"538.221","MEAN_MOTION_DOT":"-0.00001351","FILE":"3721442","COUNTRY_CODE":"US","REV_AT_EPOCH":"3771","EPOCH":"2022-12-24T14:33:44.953920","INCLINATION":"53.2146","SEMIMAJOR_AXIS":"6917.856","MEAN_ANOMALY":"300.8067","CENTER_NAME":"EARTH","RCS_SIZE":"LARGE","APOAPSIS":"541.220","TIME_SYSTEM":"UTC","MEAN_MOTION_DDOT":"0.0000000000000","RA_OF_ASC_NODE":"316.3261"},{"MEAN_MOTION_DDOT":"0.0000000000000","TIME_SYSTEM":"UTC","RA_OF_ASC_NODE":"316.2904","SEMIMAJOR_AXIS":"6917.861","CENTER_NAME":"EARTH","MEAN_ANOMALY":"315.0558","APOAPSIS":"541.011","RCS_SIZE":"LARGE","INCLINATION":"53.2201","EPOCH":"2022-12-24T14:44:20.875200","REV_AT_EPOCH":"3771","MEAN_MOTION_DOT":"0.00000489","COUNTRY_CODE":"US","FILE":"3721442","PERIAPSIS":"538.441","BSTAR":"0.00004879600000","DECAY_DATE":null,"OBJECT_ID":"2022-041AQ","EPHEMERIS_TYPE":"0","ELEMENT_SET_NO":"999","SITE":"AFETR","GP_ID":"221380187","ECCENTRICITY":"0.00018580","OBJECT_TYPE":"PAYLOAD","CLASSIFICATION_TYPE":"U","TLE_LINE2":"2 52299  53.2201 316.2904 0001858  45.0585 315.0558 15.08846339 37718","OBJECT_NAME":"STARLINK-3759","REF_FRAME":"TEME","ARG_OF_PERICENTER":"45.0585","PERIOD":"95.437","MEAN_ELEMENT_THEORY":"SGP4","NORAD_CAT_ID":"52299","LAUNCH_DATE":"2022-04-21","MEAN_MOTION":"15.08846339","TLE_LINE1":"1 52299U 22041AQ  22358.61413050  .00000489  00000-0  48796-4 0  9995"}];
